ONEWEB-0228             
1 48780U 21045P   24179.12115336 -.00000089  00000+0 -27292-3 0  9997
2 48780  87.9024  42.4724 0001959  80.7074 279.4277 13.15069176150780
